OBJECT_NAME,OBJECT_ID,EPOCH,MEAN_MOTION,ECCENTRICITY,INCLINATION,RA_OF_ASC_NODE,ARG_OF_PERICENTER,MEAN_ANOMALY,EPHEMERIS_TYPE,CLASSIFICATION_TYPE,NORAD_CAT_ID,ELEMENT_SET_NO,REV_AT_EPOCH,BSTAR,MEAN_MOTION_DOT,MEAN_MOTION_DDOT
GEOSCAN 3 (RS92S3),2025-155T,2026-06-09T12:02:52.219392,15.35138341,.000557,97.4532,130.2907,185.4864,174.6319,0,U,64893,999,7967,.46271E-3,.15719E-3,0
INNOSAT 3 (RS92S0),2025-155U,2026-06-09T12:48:04.137408,15.43288753,.000512,97.4482,131.8490,170.8140,189.3202,0,U,64894,999,7978,.76499E-3,.34072E-3,0
KNACKSAT-2,1998-067XZ,2026-06-09T05:06:42.455232,15.59248117,.0010139,51.6310,334.5675,180.3402,179.7586,0,U,67683,999,1903,.55732E-3,.44471E-3,0
